{"type": "FeatureCollection", "features": [ {"type": "Feature", "properties": {"norad_id": 54031, "name": "COSMOS 2559 (707K)", "group": "gnss", "lat": 64.33286912145665, "lon": 54.190649018199366, "alt_km": 19128.143012015276, "timestamp": "2025-12-26T08:37:54.824319+00:00", "meta": {"OBJECT_NAME": "COSMOS 2559 (707K)", "OBJECT_ID": "2022-130A", "EPOCH": "2025-12-25T07:14:23.309088", "MEAN_MOTION": 2.13101233, "ECCENTRICITY": 0.0011493, "INCLINATION": 64.3751, "RA_OF_ASC_NODE": 320.6993, "ARG_OF_PERICENTER": 191.6749, "MEAN_ANOMALY": 168.3019, "EPHEMERIS_TYPE": 0, "CLASSIFICATION_TYPE": "U", "NORAD_CAT_ID": 54031, "ELEMENT_SET_NO": 999, "REV_AT_EPOCH": 2498, "BSTAR": 0, "MEAN_MOTION_DOT": -3.5e-07, "MEAN_MOTION_DDOT": 0}, "tle": {"line1": "1 54031U 22130A   25359.30165867 -.00000035  00000+0  00000+0 0  9998", "line2": "2 54031  64.3751 320.6993 0011493 191.6749 168.3019  2.13101233 24985"}}, "geometry": {"type": "Point", "coordinates": [54.190649018199366, 64.33286912145665]}}, {"type": "Feature", "properties": {"norad_id": 54377, "name": "COSMOS 2564 (761)", "group": "gnss", "lat": -28.007667740040482, "lon": 33.00074882323131, "alt_km": 19112.15108434314, "timestamp": "2025-12-26T08:37:54.824330+00:00", "meta": {"OBJECT_NAME": "COSMOS 2564 (761)", "OBJECT_ID": "2022-161A", "EPOCH": "2025-12-25T03:29:54.558240", "MEAN_MOTION": 2.13102011, "ECCENTRICITY": 0.0008544, "INCLINATION": 64.739, "RA_OF_ASC_NODE": 198.4867, "ARG_OF_PERICENTER": 203.5994, "MEAN_ANOMALY": 156.4178, "EPHEMERIS_TYPE": 0, "CLASSIFICATION_TYPE": "U", "NORAD_CAT_ID": 54377, "ELEMENT_SET_NO": 999, "REV_AT_EPOCH": 2392, "BSTAR": 0, "MEAN_MOTION_DOT": 1.03e-06, "MEAN_MOTION_DDOT": 0}, "tle": {"line1": "1 54377U 22161A   25359.14577035  .00000103  00000+0  00000+0 0  9996", "line2": "2 54377  64.7390 198.4867 0008544 203.5994 156.4178  2.13102011 23922"}}, "geometry": {"type": "Point", "coordinates": [33.00074882323131, -28.007667740040482]}}, {"type": "Feature", "properties": {"norad_id": 55268, "name": "GPS BIII-6  (PRN 28)", "group": "gnss", "lat": -46.90831236615818, "lon": 107.06209916292546, "alt_km": 20183.185011126254, "timestamp": "2025-12-26T08:37:54.824342+00:00", "meta": {"OBJECT_NAME": "GPS BIII-6  (PRN 28)", "OBJECT_ID": "2023-009A", "EPOCH": "2025-12-22T10:59:58.065216", "MEAN_MOTION": 2.00554901, "ECCENTRICITY": 0.00037047, "INCLINATION": 55.1065, "RA_OF_ASC_NODE": 155.4638, "ARG_OF_PERICENTER": 355.7912, "MEAN_ANOMALY": 4.4255, "EPHEMERIS_TYPE": 0, "CLASSIFICATION_TYPE": "U", "NORAD_CAT_ID": 55268, "ELEMENT_SET_NO": 999, "REV_AT_EPOCH": 2170, "BSTAR": 0, "MEAN_MOTION_DOT": 7.4e-07, "MEAN_MOTION_DDOT": 0}, "tle": {"line1": "1 55268U 23009A   25356.45831094  .00000074  00000+0  00000+0 0  9994", "line2": "2 55268  55.1065 155.4638 0003704 355.7912   4.4255  2.00554901 21704"}}, "geometry": {"type": "Point", "coordinates": [107.06209916292546, -46.90831236615818]}}, {"type": "Feature", "properties": {"norad_id": 56564, "name": "BEIDOU-3 G4 (C62)", "group": "gnss", "lat": 0.7831018015220551, "lon": 24.610617149167705, "alt_km": 35795.362008953525, "timestamp": "2025-12-26T08:37:54.824356+00:00", "meta": {"OBJECT_NAME": "BEIDOU-3 G4 (C62)", "OBJECT_ID": "2023-066A", "EPOCH": "2025-12-26T05:07:38.649792", "MEAN_MOTION": 1.0027069, "ECCENTRICITY": 0.0002533, "INCLINATION": 0.787, "RA_OF_ASC_NODE": 303.1041, "ARG_OF_PERICENTER": 230.0794, "MEAN_ANOMALY": 158.741, "EPHEMERIS_TYPE": 0, "CLASSIFICATION_TYPE": "U", "NORAD_CAT_ID": 56564, "ELEMENT_SET_NO": 999, "REV_AT_EPOCH": 966, "BSTAR": 0, "MEAN_MOTION_DOT": -8.9e-07, "MEAN_MOTION_DDOT": 0}, "tle": {"line1": "1 56564U 23066A   25360.21364178 -.00000089  00000+0  00000+0 0  9997", "line2": "2 56564   0.7870 303.1041 0002533 230.0794 158.7410  1.00270690  9662"}}, "geometry": {"type": "Point", "coordinates": [24.610617149167705, 0.7831018015220551]}}, {"type": "Feature", "properties": {"norad_id": 56759, "name": "NVS-01 (IRNSS-1J)", "group": "gnss", "lat": 2.515151958242428, "lon": -5.7480031092087325, "alt_km": 35783.14605009546, "timestamp": "2025-12-26T08:37:54.824372+00:00", "meta": {"OBJECT_NAME": "NVS-01 (IRNSS-1J)", "OBJECT_ID": "2023-076A", "EPOCH": "2025-12-26T01:53:21.579072", "MEAN_MOTION": 1.00270412, "ECCENTRICITY": 0.0008946, "INCLINATION": 2.5871, "RA_OF_ASC_NODE": 251.1256, "ARG_OF_PERICENTER": 17.5986, "MEAN_ANOMALY": 344.0068, "EPHEMERIS_TYPE": 0, "CLASSIFICATION_TYPE": "U", "NORAD_CAT_ID": 56759, "ELEMENT_SET_NO": 999, "REV_AT_EPOCH": 938, "BSTAR": 0, "MEAN_MOTION_DOT": -3.13e-06, "MEAN_MOTION_DDOT": 0}, "tle": {"line1": "1 56759U 23076A   25360.07872198 -.00000313  00000+0  00000+0 0  9994", "line2": "2 56759   2.5871 251.1256 0008946  17.5986 344.0068  1.00270412  9384"}}, "geometry": {"type": "Point", "coordinates": [-5.7480031092087325, 2.515151958242428]}}, {"type": "Feature", "properties": {"norad_id": 57517, "name": "COSMOS 2569 (703K)", "group": "gnss", "lat": -18.844359419762224, "lon": -92.46933782077295, "alt_km": 19130.81922723813, "timestamp": "2025-12-26T08:37:54.824383+00:00", "meta": {"OBJECT_NAME": "COSMOS 2569 (703K)", "OBJECT_ID": "2023-114A", "EPOCH": "2025-12-26T02:20:34.903680", "MEAN_MOTION": 2.13103952, "ECCENTRICITY": 0.001101, "INCLINATION": 65.2009, "RA_OF_ASC_NODE": 78.4621, "ARG_OF_PERICENTER": 287.2132, "MEAN_ANOMALY": 72.7147, "EPHEMERIS_TYPE": 0, "CLASSIFICATION_TYPE": "U", "NORAD_CAT_ID": 57517, "ELEMENT_SET_NO": 999, "REV_AT_EPOCH": 1857, "BSTAR": 0, "MEAN_MOTION_DOT": -5e-08, "MEAN_MOTION_DDOT": 0}, "tle": {"line1": "1 57517U 23114A   25360.09762620 -.00000005  00000+0  00000+0 0  9998", "line2": "2 57517  65.2009  78.4621 0011010 287.2132  72.7147  2.13103952 18570"}}, "geometry": {"type": "Point", "coordinates": [-92.46933782077295, -18.844359419762224]}}, {"type": "Feature", "properties": {"norad_id": 58654, "name": "BEIDOU-3 M28 (C50)", "group": "gnss", "lat": -21.489168961315993, "lon": 52.52405625993919, "alt_km": 21526.7803750444, "timestamp": "2025-12-26T08:37:54.824394+00:00", "meta": {"OBJECT_NAME": "BEIDOU-3 M28 (C50)", "OBJECT_ID": "2023-207A", "EPOCH": "2025-12-24T18:54:51.717312", "MEAN_MOTION": 1.86229668, "ECCENTRICITY": 0.0002918, "INCLINATION": 55.5946, "RA_OF_ASC_NODE": 68.1934, "ARG_OF_PERICENTER": 275.8619, "MEAN_ANOMALY": 84.1589, "EPHEMERIS_TYPE": 0, "CLASSIFICATION_TYPE": "U", "NORAD_CAT_ID": 58654, "ELEMENT_SET_NO": 999, "REV_AT_EPOCH": 1359, "BSTAR": 0, "MEAN_MOTION_DOT": -2.7e-07, "MEAN_MOTION_DDOT": 0}, "tle": {"line1": "1 58654U 23207A   25358.78809858 -.00000027  00000+0  00000+0 0  9996", "line2": "2 58654  55.5946  68.1934 0002918 275.8619  84.1589  1.86229668 13594"}}, "geometry": {"type": "Point", "coordinates": [52.52405625993919, -21.489168961315993]}}, {"type": "Feature", "properties": {"norad_id": 58655, "name": "BEIDOU-3 M26 (C48)", "group": "gnss", "lat": 51.13139402742384, "lon": -169.97564703163735, "alt_km": 21532.593523556206, "timestamp": "2025-12-26T08:37:54.824405+00:00", "meta": {"OBJECT_NAME": "BEIDOU-3 M26 (C48)", "OBJECT_ID": "2023-207B", "EPOCH": "2025-12-26T04:42:57.397824", "MEAN_MOTION": 1.86231148, "ECCENTRICITY": 0.0004271, "INCLINATION": 55.5979, "RA_OF_ASC_NODE": 68.1319, "ARG_OF_PERICENTER": 261.8376, "MEAN_ANOMALY": 98.1658, "EPHEMERIS_TYPE": 0, "CLASSIFICATION_TYPE": "U", "NORAD_CAT_ID": 58655, "ELEMENT_SET_NO": 999, "REV_AT_EPOCH": 1360, "BSTAR": 0, "MEAN_MOTION_DOT": -3.2e-07, "MEAN_MOTION_DDOT": 0}, "tle": {"line1": "1 58655U 23207B   25360.19649766 -.00000032  00000+0  00000+0 0  9991", "line2": "2 58655  55.5979  68.1319 0004271 261.8376  98.1658  1.86231148 13607"}}, "geometry": {"type": "Point", "coordinates": [-169.97564703163735, 51.13139402742384]}}, {"type": "Feature", "properties": {"norad_id": 59598, "name": "GSAT0225 (GALILEO 29)", "group": "gnss", "lat": -2.4377572108075305, "lon": 104.20831595345535, "alt_km": 23228.920369668693, "timestamp": "2025-12-26T08:37:54.824417+00:00", "meta": {"OBJECT_NAME": "GSAT0225 (GALILEO 29)", "OBJECT_ID": "2024-079A", "EPOCH": "2025-12-25T18:42:53.226144", "MEAN_MOTION": 1.70474814, "ECCENTRICITY": 0.00021774, "INCLINATION": 55.0084, "RA_OF_ASC_NODE": 105.9312, "ARG_OF_PERICENTER": 191.4017, "MEAN_ANOMALY": 169.7242, "EPHEMERIS_TYPE": 0, "CLASSIFICATION_TYPE": "U", "NORAD_CAT_ID": 59598, "ELEMENT_SET_NO": 999, "REV_AT_EPOCH": 1036, "BSTAR": 0, "MEAN_MOTION_DOT": 1.7e-07, "MEAN_MOTION_DDOT": 0}, "tle": {"line1": "1 59598U 24079A   25359.77978271  .00000017  00000+0  00000+0 0  9996", "line2": "2 59598  55.0084 105.9312 0002177 191.4017 169.7242  1.70474814 10368"}}, "geometry": {"type": "Point", "coordinates": [104.20831595345535, -2.4377572108075305]}}, {"type": "Feature", "properties": {"norad_id": 59600, "name": "GSAT0227 (GALILEO 30)", "group": "gnss", "lat": -47.712352396561556, "lon": -23.80828682213489, "alt_km": 23232.52757063602, "timestamp": "2025-12-26T08:37:54.824428+00:00", "meta": {"OBJECT_NAME": "GSAT0227 (GALILEO 30)", "OBJECT_ID": "2024-079C", "EPOCH": "2025-12-21T20:31:35.455872", "MEAN_MOTION": 1.70474868, "ECCENTRICITY": 0.00028355, "INCLINATION": 55.0019, "RA_OF_ASC_NODE": 106.0394, "ARG_OF_PERICENTER": 117.3615, "MEAN_ANOMALY": 242.6419, "EPHEMERIS_TYPE": 0, "CLASSIFICATION_TYPE": "U", "NORAD_CAT_ID": 59600, "ELEMENT_SET_NO": 999, "REV_AT_EPOCH": 1034, "BSTAR": 0, "MEAN_MOTION_DOT": 4e-08, "MEAN_MOTION_DDOT": 0}, "tle": {"line1": "1 59600U 24079C   25355.85527148  .00000004  00000+0  00000+0 0  9994", "line2": "2 59600  55.0019 106.0394 0002835 117.3615 242.6419  1.70474868 10348"}}, "geometry": {"type": "Point", "coordinates": [-23.80828682213489, -47.712352396561556]}}]}